NORAD_CAT_ID,OBJECT_NAME,OBJECT_TYPE,EPOCH,MEAN_MOTION,ECCENTRICITY,INCLINATION,RA_OF_ASC_NODE,ARG_OF_PERICENTER,MEAN_ANOMALY,BSTAR,MEAN_MOTION_DOT,MEAN_MOTION_DDOT,TLE_LINE0,TLE_LINE1,TLE_LINE2,SEMIMAJOR_AXIS,PERIOD,APOGEE,PERIGEE,DECAYED
51989.0,STARLINK-3642,PAYLOAD,2023-10-21 07:35:42,15.08835152,0.0001785,53.2186,346.379,114.95,245.1677,-2.3398e-05,-6.6e-06,0.0,0 STARLINK-3642,1 51989U 22025AK  23294.31646429 -.00000660  00000-0 -23398-4 0  9991,2 51989  53.2186 346.3790 0001785 114.9500 245.1677 15.08835152 89661,6917.895,95.438,540.995,538.525,0.0
51989.0,STARLINK-3642,PAYLOAD,2023-10-22 10:37:15,15.0884572,0.0001517,53.2183,341.3259,90.0813,270.0353,0.00032851,4.945e-05,0.0,0 STARLINK-3642,1 51989U 22025AK  23295.44254593  .00004945  00000-0  32851-3 0  9994,2 51989  53.2183 341.3259 0001517  90.0813 270.0353 15.08845720 90939,6917.863,95.437,540.777,538.678,0.0
51989.0,STARLINK-3642,PAYLOAD,2023-10-22 12:12:38,15.08848106,0.0001581,53.2186,341.0281,96.5269,263.5903,0.00035877,5.428e-05,0.0,0 STARLINK-3642,1 51989U 22025AK  23295.50878464  .00005428  00000-0  35877-3 0  9998,2 51989  53.2186 341.0281 0001581  96.5269 263.5903 15.08848106 89848,6917.856,95.437,540.814,538.627,0.0
51989.0,STARLINK-3642,PAYLOAD,2023-10-22 20:09:35,15.08837861,0.0002373,53.2186,339.5392,96.3273,263.7989,0.0001437,1.999e-05,0.0,0 STARLINK-3642,1 51989U 22025AK  23295.83999081  .00001999  00000-0  14370-3 0  9997,2 51989  53.2186 339.5392 0002373  96.3273 263.7989 15.08837861 89893,6917.887,95.438,541.394,538.11,0.0
51989.0,STARLINK-3642,PAYLOAD,2023-10-23 20:00:22,15.08837362,0.0001911,53.2181,335.0794,82.5725,277.5484,8.4577e-06,-1.54e-06,0.0,0 STARLINK-3642,1 51989U 22025AK  23296.83359408 -.00000154  00000-0  84577-5 0  9992,2 51989  53.2181 335.0794 0001911  82.5725 277.5484 15.08837362 90049,6917.888,95.438,541.075,538.431,0.0
51989.0,STARLINK-3642,PAYLOAD,2023-10-24 02:21:55,15.08836731,0.0001864,53.2174,333.8904,87.6435,272.477,2.9286e-05,1.78e-06,0.0,0 STARLINK-3642,1 51989U 22025AK  23297.09855515  .00000178  00000-0  29286-4 0  9991,2 51989  53.2174 333.8904 0001864  87.6435 272.4770 15.08836731 91188,6917.89,95.438,541.045,538.466,0.0
51989.0,STARLINK-3642,PAYLOAD,2023-10-24 10:18:50,15.08846505,0.0001809,53.2187,332.404,81.5791,278.5406,0.00016577,2.352e-05,0.0,0 STARLINK-3642,1 51989U 22025AK  23297.42975224  .00002352  00000-0  16577-3 0  9992,2 51989  53.2187 332.4040 0001809  81.5791 278.5406 15.08846505 90132,6917.861,95.437,540.977,538.474,0.0
51989.0,STARLINK-3642,PAYLOAD,2023-10-25 08:34:14,15.08851262,0.0001827,53.2177,328.2424,86.0505,274.0696,0.00028832,4.305e-05,0.0,0 STARLINK-3642,1 51989U 22025AK  23298.35711009  .00004305  00000-0  28832-3 0  9991,2 51989  53.2177 328.2424 0001827  86.0505 274.0696 15.08851262 91378,6917.846,95.437,540.975,538.447,0.0
51989.0,STARLINK-3642,PAYLOAD,2023-10-25 19:41:56,15.08845501,0.0002099,53.2189,326.1592,79.607,280.5159,0.00016373,2.319e-05,0.0,0 STARLINK-3642,1 51989U 22025AK  23298.82079305  .00002319  00000-0  16373-3 0  9999,2 51989  53.2189 326.1592 0002099  79.6070 280.5159 15.08845501 90342,6917.864,95.437,541.181,538.277,0.0
51989.0,STARLINK-3642,PAYLOAD,2023-10-26 02:03:29,15.0884552,0.0001999,53.2179,324.9712,84.3634,275.7586,0.00017939,2.568e-05,0.0,0 STARLINK-3642,1 51989U 22025AK  23299.08575260  .00002568  00000-0  17939-3 0  9994,2 51989  53.2179 324.9712 0001999  84.3634 275.7586 15.08845520 91485,6917.864,95.437,541.111,538.346,0.0
51989.0,STARLINK-3642,PAYLOAD,2023-10-26 11:35:47,15.0884976,0.000184,53.2175,323.184,99.0585,261.0615,0.00013759,1.903e-05,0.0,0 STARLINK-3642,1 51989U 22025AK  23299.48318824  .00001903  00000-0  13759-3 0  9997,2 51989  53.2175 323.1840 0001840  99.0585 261.0615 15.08849760 90443,6917.851,95.437,540.988,538.443,0.0
51989.0,STARLINK-3642,PAYLOAD,2023-10-27 05:05:01,15.08849105,0.0001798,53.2162,319.9125,101.394,258.7254,9.6169e-05,1.243e-05,0.0,0 STARLINK-3642,1 51989U 22025AK  23300.21182663  .00001243  00000-0  96169-4 0  9995,2 51989  53.2162 319.9125 0001798 101.3940 258.7254 15.08849105 91651,6917.853,95.437,540.961,538.474,0.0
51989.0,STARLINK-3642,PAYLOAD,2023-10-27 08:15:47,15.088529,0.0001747,53.217,319.3195,97.3333,262.7858,0.00014055,1.95e-05,0.0,0 STARLINK-3642,1 51989U 22025AK  23300.34430439  .00001950  00000-0  14055-3 0  9994,2 51989  53.2170 319.3195 0001747  97.3333 262.7858 15.08852900 90577,6917.841,95.437,540.915,538.497,0.0
51989.0,STARLINK-3642,PAYLOAD,2023-10-27 17:48:06,15.08843845,0.0001636,53.2166,317.5346,96.7861,263.3317,-2.1311e-05,-6.27e-06,0.0,0 STARLINK-3642,1 51989U 22025AK  23300.74174720 -.00000627  00000-0 -21311-4 0  9992,2 51989  53.2166 317.5346 0001636  96.7861 263.3317 15.08843845 91730,6917.869,95.437,540.865,538.602,0.0
51989.0,STARLINK-3642,PAYLOAD,2023-10-28 08:06:35,15.0883585,0.0001928,53.218,314.8621,106.2791,253.8413,2.316e-05,8e-07,0.0,0 STARLINK-3642,1 51989U 22025AK  23301.33791437  .00000080  00000-0  23160-4 0  9993,2 51989  53.2180 314.8621 0001928 106.2791 253.8413 15.08835850 91823,6917.893,95.438,541.092,538.424,0.0
51989.0,STARLINK-3642,PAYLOAD,2023-10-28 17:38:54,15.08836014,0.0001879,53.2173,313.0773,108.917,251.2026,2.7215e-05,1.45e-06,0.0,0 STARLINK-3642,1 51989U 22025AK  23301.73535483  .00000145  00000-0  27215-4 0  9991,2 51989  53.2173 313.0773 0001879 108.9170 251.2026 15.08836014 90788,6917.893,95.438,541.057,538.458,0.0
51989.0,STARLINK-3642,PAYLOAD,2023-10-29 07:57:22,15.08845044,0.0001854,53.2174,310.4009,108.5465,251.5729,0.00014419,2.008e-05,0.0,0 STARLINK-3642,1 51989U 22025AK  23302.33151194  .00002008  00000-0  14419-3 0  9992,2 51989  53.2174 310.4009 0001854 108.5465 251.5729 15.08845044 90874,6917.865,95.437,541.013,538.447,0.0
51989.0,STARLINK-3642,PAYLOAD,2023-10-29 17:29:41,15.0884147,0.0001644,53.2166,308.6146,99.9302,260.1875,0.00014539,2.027e-05,0.0,0 STARLINK-3642,1 51989U 22025AK  23302.72895365  .00002027  00000-0  14539-3 0  9994,2 51989  53.2166 308.6146 0001644  99.9302 260.1875 15.08841470 92033,6917.876,95.437,540.878,538.604,0.0
51989.0,STARLINK-3642,PAYLOAD,2023-10-30 04:37:24,15.08835857,0.0002262,53.2178,306.5342,94.9103,265.2147,9.4321e-05,1.213e-05,0.0,0 STARLINK-3642,1 51989U 22025AK  23303.19263993  .00001213  00000-0  94321-4 0  9996,2 51989  53.2178 306.5342 0002262  94.9103 265.2147 15.08835857 92100,6917.893,95.438,541.323,538.193,0.0
51989.0,STARLINK-3642,PAYLOAD,2023-10-30 17:20:29,15.08838874,0.0001859,53.2176,304.1542,92.3455,267.775,0.0001216,1.648e-05,0.0,0 STARLINK-3642,1 51989U 22025AK  23303.72256010  .00001648  00000-0  12160-3 0  9999,2 51989  53.2176 304.1542 0001859  92.3455 267.7750 15.08838874 91082,6917.884,95.438,541.035,538.463,0.0
51989.0,STARLINK-3642,PAYLOAD,2023-10-31 09:14:20,15.08839852,0.0001898,53.2178,301.181,91.448,268.673,6.84e-05,8.01e-06,0.0,0 STARLINK-3642,1 51989U 22025AK  23304.38496211  .00000801  00000-0  68400-4 0  9990,2 51989  53.2178 301.1810 0001898  91.4480 268.6730 15.08839852 92288,6917.881,95.438,541.059,538.433,0.0
51989.0,STARLINK-3642,PAYLOAD,2023-10-31 17:11:16,15.08839822,0.0001837,53.2175,299.6936,91.9518,268.1685,0.00011254,1.503e-05,0.0,0 STARLINK-3642,1 51989U 22025AK  23304.71616289  .00001503  00000-0  11254-3 0  9990,2 51989  53.2175 299.6936 0001837  91.9518 268.1685 15.08839822 91230,6917.881,95.438,541.017,538.475,0.0
51989.0,STARLINK-3642,PAYLOAD,2023-11-01 09:05:07,15.08852414,0.0001688,53.2165,296.717,96.603,263.5154,0.00031896,4.794e-05,0.0,0 STARLINK-3642,1 51989U 22025AK  23305.37855623  .00004794  00000-0  31896-3 0  9999,2 51989  53.2165 296.7170 0001688  96.6030 263.5154 15.08852414 92437,6917.842,95.437,540.875,538.54,0.0
51989.0,STARLINK-3642,PAYLOAD,2023-11-01 17:02:03,15.08839591,0.0002012,53.2183,295.2338,78.8673,281.2545,9.7547e-05,1.265e-05,0.0,0 STARLINK-3642,1 51989U 22025AK  23305.70976452  .00001265  00000-0  97547-4 0  9996,2 51989  53.2183 295.2338 0002012  78.8673 281.2545 15.08839591 92481,6917.882,95.438,541.139,538.355,0.0
51989.0,STARLINK-3642,PAYLOAD,2023-11-02 05:45:08,15.08842606,0.0001763,53.2174,292.8538,86.2861,273.8332,0.00015767,2.222e-05,0.0,0 STARLINK-3642,1 51989U 22025AK  23306.23968309  .00002222  00000-0  15767-3 0  9994,2 51989  53.2174 292.8538 0001763  86.2861 273.8332 15.08842606 91469,6917.872,95.437,540.957,538.518,0.0
51989.0,STARLINK-3642,PAYLOAD,2023-11-03 04:00:32,15.08853445,0.0001861,53.2184,288.6925,85.5265,274.594,0.00031784,4.776e-05,0.0,0 STARLINK-3642,1 51989U 22025AK  23307.16703878  .00004776  00000-0  31784-3 0  9998,2 51989  53.2184 288.6925 0001861  85.5265 274.5940 15.08853445 92706,6917.839,95.437,540.992,538.417,0.0
51989.0,STARLINK-3642,PAYLOAD,2023-11-03 08:46:41,15.08862752,0.0001879,53.2174,287.7963,93.2412,266.8795,0.00060916,9.426e-05,0.0,0 STARLINK-3642,1 51989U 22025AK  23307.36575459  .00009426  00000-0  60916-3 0  9998,2 51989  53.2174 287.7963 0001879  93.2412 266.8795 15.08862752 91630,6917.811,95.436,540.976,538.376,0.0
51989.0,STARLINK-3642,PAYLOAD,2023-11-04 05:26:42,15.08847568,0.000151,53.2176,283.9325,92.672,267.4445,0.00017909,2.564e-05,0.0,0 STARLINK-3642,1 51989U 22025AK  23308.22687994  .00002564  00000-0  17909-3 0  9992,2 51989  53.2176 283.9325 0001510  92.6720 267.4445 15.08847568 92862,6917.857,95.437,540.767,538.678,0.0
51989.0,STARLINK-3642,PAYLOAD,2023-11-04 08:37:28,15.08846321,0.0001446,53.2169,283.3373,94.1435,265.9722,0.000617,9.547e-05,0.0,0 STARLINK-3642,1 51989U 22025AK  23308.35936038  .00009547  00000-0  61700-3 0  9998,2 51989  53.2169 283.3373 0001446  94.1435 265.9722 15.08846321 91786,6917.861,95.437,540.726,538.726,0.0
51989.0,STARLINK-3642,PAYLOAD,2023-11-04 14:59:01,15.08839979,0.0001425,53.2169,282.1466,90.2043,269.9112,0.00044545,6.808e-05,0.0,0 STARLINK-3642,1 51989U 22025AK  23308.62432262  .00006808  00000-0  44545-3 0  9993,2 51989  53.2169 282.1466 0001425  90.2043 269.9112 15.08839979 92920,6917.88,95.438,540.731,538.76,0.0
